{
    "links": {
        "self": "http://www.neowsapp.com/rest/v1/neo/3830888?api_key=iIulBulltgU6a56xZRHN4H3l9WmuAYTsLGpBGhQ2"
    },
    "id": "3830888",
    "neo_reference_id": "3830888",
    "name": "(2018 SR2)",
    "designation": "2018 SR2",
    "nasa_jpl_url": "http://ssd.jpl.nasa.gov/sbdb.cgi?sstr=3830888",
    "absolute_magnitude_h": 23.8,
    "estimated_diameter": {
        "kilometers": {
            "estimated_diameter_min": 0.046190746,
            "estimated_diameter_max": 0.1032856481
        },
        "meters": {
            "estimated_diameter_min": 46.1907460282,
            "estimated_diameter_max": 103.2856480504
        },
        "miles": {
            "estimated_diameter_min": 0.0287015901,
            "estimated_diameter_max": 0.0641787064
        },
        "feet": {
            "estimated_diameter_min": 151.544447199,
            "estimated_diameter_max": 338.8636855496
        }
    },
    "is_potentially_hazardous_asteroid": false,
    "close_approach_data": [
        {
            "close_approach_date": "2005-04-15",
            "close_approach_date_full": "2005-Apr-15 03:30",
            "epoch_date_close_approach": 1113535800000,
            "relative_velocity": {
                "kilometers_per_second": "2.5767127503",
                "kilometers_per_hour": "9276.1659011057",
                "miles_per_hour": "5763.848751162"
            },
            "miss_distance": {
                "astronomical": "1.8280738311",
                "lunar": "711.1207202979",
                "kilometers": "273475951.335299757",
                "miles": "169930076.3974083666"
            },
            "orbiting_body": "Juptr"
        },
        {
            "close_approach_date": "2018-10-21",
            "close_approach_date_full": "2018-Oct-21 01:03",
            "epoch_date_close_approach": 1540083780000,
            "relative_velocity": {
                "kilometers_per_second": "6.5594524931",
                "kilometers_per_hour": "23614.0289751728",
                "miles_per_hour": "14672.8392818234"
            },
            "miss_distance": {
                "astronomical": "0.0635143408",
                "lunar": "24.7070785712",
                "kilometers": "9501610.098134096",
                "miles": "5904026.7416226848"
            },
            "orbiting_body": "Earth"
        },
        {
            "close_approach_date": "2037-12-07",
            "close_approach_date_full": "2037-Dec-07 21:37",
            "epoch_date_close_approach": 2143834620000,
            "relative_velocity": {
                "kilometers_per_second": "18.8495232995",
                "kilometers_per_hour": "67858.2838783012",
                "miles_per_hour": "42164.4986687144"
            },
            "miss_distance": {
                "astronomical": "0.4112640301",
                "lunar": "159.9817077089",
                "kilometers": "61524222.910575887",
                "miles": "38229379.3967537606"
            },
            "orbiting_body": "Earth"
        },
        {
            "close_approach_date": "2041-12-22",
            "close_approach_date_full": "2041-Dec-22 11:12",
            "epoch_date_close_approach": 2271323520000,
            "relative_velocity": {
                "kilometers_per_second": "11.5627590992",
                "kilometers_per_hour": "41625.9327570944",
                "miles_per_hour": "25864.7358289846"
            },
            "miss_distance": {
                "astronomical": "0.0596401088",
                "lunar": "23.2000023232",
                "kilometers": "8922033.243048256",
                "miles": "5543894.3834316928"
            },
            "orbiting_body": "Mars"
        }
    ],
    "orbital_data": {
        "orbit_id": "18",
        "orbit_determination_date": "2020-04-15 06:07:42",
        "first_observation_date": "2018-09-29",
        "last_observation_date": "2018-11-09",
        "data_arc_in_days": 41,
        "observations_used": 83,
        "orbit_uncertainty": "6",
        "minimum_orbit_intersection": ".0633556",
        "jupiter_tisserand_invariant": "3.255",
        "epoch_osculation": "2459000.5",
        "eccentricity": ".5709531946688304",
        "semi_major_axis": "2.441770674013295",
        "inclination": "1.977633816489933",
        "ascending_node_longitude": "301.1931944824769",
        "orbital_period": "1393.656475714526",
        "perihelion_distance": "1.047633907036741",
        "perihelion_argument": "87.55371511265345",
        "aphelion_distance": "3.83590744098985",
        "perihelion_time": "2458413.884040264595",
        "mean_anomaly": "151.5307029994411",
        "mean_motion": ".2583132976262521",
        "equinox": "J2000",
        "orbit_class": {
            "orbit_class_type": "AMO",
            "orbit_class_description": "Near-Earth asteroid orbits similar to that of 1221 Amor",
            "orbit_class_range": "1.017 AU < q (perihelion) < 1.3 AU"
        }
    },
    "is_sentry_object": false
}